#dP2021  9 23  0  0  0.00000000      96 __u+U ITR00 FIT  IAC
## 2176 345600.00000000   900.00000000 59480 0.0000000000000
+  114   C06C07C08C09C10C11C12C13C14C16C19C20C21C22C23C24C25
+        C26C27C28C29C30C32C33C34C35C36C37C38C39C40C41C42C43
+        C44C45C46E01E02E03E04E05E07E08E09E11E12E13E14E15E18
+        E19E21E24E25E26E27E30E31E33E36G01G02G03G04G05G06G07
+        G08G09G10G11G12G13G14G15G16G17G18G19G20G21G22G23G24
+        G25G26G27G28G29G30G31G32R01R02R03R04R05R07R08R09R11
+        R12R13R14R15R16R17R18R19R20R21R22R24  0  0  0  0  0
++        11  0  7  9  8 10  9  7  7 10  7  7  7  6  8  6  6
++         6  9  7  6  8  7  6  8  6  6  7 10  6  7  8  6  8
++         7  6  7  6  5  6  7  5  6  8  6  6  7  8  6  7  8
++         7  8  8  5  7  7  6  7  6  6  7  7  6  5  7  7  7
++         7  6  8  7  7  5  6  8  5  5  8  7  5  7  6  5  6
++         8  6  6  7  6  5  7  7  7  7  6  7  7  6  5  7  7
++         6  7  6  6  6  7  7  6  7  5  8  5  0  0  0  0  0
%c M  cc GPS ccc cccc cccc cccc cccc ccccc ccccc ccccc ccccc
%c cc cc ccc ccc cccc cccc cccc cccc ccccc ccccc ccccc ccccc
%f  0.0000000  0.000000000  0.00000000000  0.000000000000000
%f  0.0000000  0.000000000  0.00000000000  0.000000000000000
%i    0    0    0    0      0      0      0      0         0
%i    0    0    0    0      0      0      0      0         0
/* INFORMATION & ANALYSIS CENTER (IAC)      ULTRA-RAPID DATA
/* S/V CLOCKS ARE ALIGNED TO GNSS TIME                      
/* G:C1WC2W R:C1PC2P E:C1XC5X C:C2IC6I J:C1CC2S             
/* PCV:IGS14_2163 OL/AL:FES2004  NONE     YN ORB:CoN CLK:CoN
*  2021 09 23 21 45  0.00000000
PC06  -4230.598175  25294.413877 -33451.080496    235.034486
PC07 -18778.276223  32748.627141  18644.748357   -136.370337
PC08  -5106.190814  40306.832915  11540.767179   -931.830918
PC09   5478.841668  28623.314550 -29985.969613   -129.664085
PC10 -10790.555789  32721.259381  24250.076092      2.092593
PC11   3461.958087  18483.498902  20698.455744    592.061746
PC12 -14597.192978   8129.417084  22380.381532    752.063679
PC13   -122.224436  42102.362463   4327.388934    419.202542
PC14  -7308.925685  18998.942717 -19049.474065    627.316687
PC16  -7072.561831  23352.400387 -34226.333268   -795.121708
PC19  -3259.153604 -16007.879299  22642.565177    958.137927
PC20  15115.760199 -19007.182008  13777.695171   -799.213673
PC21 -25465.156568  10715.431412   3864.435830   -932.046135
PC22 -20392.050898  -3655.518189  18676.946373   -953.258816
PC23  14165.746835  12765.186733  20388.482174   -963.920578
PC24  -8384.992360  24490.182872 -10457.164552   -967.443331
PC25   5280.170748  26284.581021   7783.192779   -850.375249
PC26 -15311.236150   9634.372518 -21261.575190    845.868587
PC27  21454.882248   -877.703625 -17837.345666    602.158194
PC28  24239.258922  13653.302341  -2275.328432    -22.954148
PC29 -13488.450819 -19613.204840 -14567.093016    451.208242
PC30   6196.951218 -14729.471074 -22883.122271    481.520204
PC32  25400.465234 -10887.896256  -3901.495112   -950.949571
PC33   3287.042559  16038.559325 -22599.535271   -968.168615
PC34  -5397.990167  15189.984883  22768.443162   -575.321053
PC35 -24608.747624 -13057.119761   1859.111758    -78.299579
PC36  -4375.740745 -26545.664099  -7374.261646   -764.676289
PC37  15720.998284  -8123.826841  21597.207064   -867.393489
PC38  -9982.134464  36866.519190  18044.412675    177.529781
PC39 -13092.581083  20404.409490 -34509.046967     33.363012
PC40 -25516.527753  28051.234527  18259.705270    202.203364
PC41  20193.822540   3866.900294 -18824.168945   -932.659567
PC42 -15819.833860  18901.235292 -13036.125976   -961.217729
PC43  12837.259303  19754.631123  14938.045865   -928.116151
PC44 -21606.138297   1490.234807  17604.152632    404.163820
PC45 -14125.422769 -12532.091585 -20528.228330    555.636351
PC46   7627.371216 -25091.294091   9499.139317     71.488544
PE01 -16982.063284  23913.289744  -3993.276819   -480.946334
PE02  16922.330294 -23967.497617   3877.867257    248.842318
PE03  18123.834121 -13536.553606  19092.092109   -477.801521
PE04   3429.443757  16960.613935 -24014.972088   -863.082270
PE05  29386.889593  -2103.592271   2873.420268   -247.056516
PE07 -23398.381403 -10420.039521  14827.919883   -588.723190
PE08  -3929.472414 -16768.225643  24069.065371   5932.827311
PE09  23602.832019  10120.936188 -14734.337466   5521.565958
PE11  19110.979621  20689.705978  -9110.574982   5380.123897
PE12   7804.272758  26580.148826  10417.503571   4994.878488
PE13 -18992.526011 -20988.565545   8646.839979    421.827603
PE14 -23814.882736 -10174.575913  -5610.503857  -1581.107122
PE15  -7902.089627 -26535.728496 -10455.602294    790.651727
PE18  29641.075008    -62.823084  -8623.222733  -1735.713441
PE19 -20265.470860  12371.867356 -17676.475350    385.055158
PE21 -20408.659933   9142.020601 -19384.934846   -689.650284
PE24  11567.213212  12710.656223  24099.395629  -1133.933797
PE25  20389.175610  -8897.772126  19540.309126   -547.677480
PE26 -18659.334790  -2058.781794  22882.207583   1309.306461
PE27 -12271.856638 -11636.142835 -24280.560424   -127.026851
PE30   4045.425689 -25795.575061 -13930.929610   2595.767082
PE31  -3002.270763  25417.850337  14885.524543   -485.951189
PE33  -7809.280230  16440.747432  23344.825365   -464.586629
PE36  18872.519742   3121.856887 -22590.269696   -266.523689
PG01 -15620.873277  -1858.218986  21186.537811    559.006338
PG02  14246.666856  21497.839029  -5519.345546   -633.941132
PG03 -20011.820551   7623.940999  15541.374538   -299.939048
PG04 -25533.989697    197.112724  -7434.224440   -204.217373
PG05  14817.500415   5533.280174 -21520.543929    -55.397313
PG06   5342.437916  25333.700506   5847.508444     80.336418
PG07  -9517.095901  14525.551828 -19586.765192    250.599766
PG08 -25645.454921  -6456.454608  -3902.691546    -37.574493
PG09 -18706.349881   9141.926628 -16575.250104   -361.345116
PG10   9550.733784 -22563.516828  10002.874135   -209.493734
PG11  11707.481049  23045.138959  -6152.711526     19.419933
PG12  20247.931570  -5556.444999  15936.017889   -101.668819
PG13  21000.434049  13337.594009  -9658.475043    189.725422
PG14 -10420.209681  22264.592227   9986.909412     -4.904075
PG15  26206.111314   4034.226391  -3887.151179   -118.953905
PG16 -10796.604452 -10542.995216 -22103.445101   -395.616294
PG17  -5578.622132  14018.300093  22294.401697    509.081518
PG18   8168.080615 -16410.261721 -19197.688424    318.874766
PG19   4690.353611  15682.840534  20682.469832     56.856967
PG20   7081.548311  16379.169135 -19776.519141    518.986288
PG21 -18234.946779  -9563.006867  17759.791089    144.237667
PG22 -17732.760828    290.276011  19887.392727   -505.953053
PG23  16950.124688 -20354.351865  -1325.837097     53.701431
PG24  17890.437987   5989.609385  18583.193422    240.938063
PG25  19889.822377 -15062.407273   8435.652337    213.206789
PG26  -1081.048415 -19920.544090 -17453.768180    137.483119
PG27 -19934.968964 -12261.775042 -13083.442328   -197.020426
PG28  -5225.508753  20960.306256  16131.989925    495.507750
PG29  21365.950712  -5124.222245 -15012.129619   -416.185439
PG30  -1538.874749  23243.139002 -12468.817444   -475.828305
PG31  -6286.372994 -25299.593254   3416.387473   -141.342165
PG32    878.428866 -15360.614024  21771.721756     -3.272073
PR01 -13551.208842  13311.942081 -17023.428639     85.730490
PR02   7400.136399   8903.682498 -22686.908159    494.312092
PR03  21705.166918   -274.536277 -13313.234669     43.485646
PR04  23584.693076  -9100.176745   3388.261919    106.170649
PR05  12414.879313 -12818.160214  18219.946186     79.474570
PR07 -22089.644558    623.929197  12814.824578    -41.042468
PR08 -23588.282475   9141.349539  -3325.523300    -61.102977
PR09  -3048.444973 -20858.665379 -14395.543476     14.746420
PR11 -11555.593392  13273.977019 -18442.577182     49.135947
PR12  -6430.938214  24566.231188  -2475.100238    264.434644
PR13   2447.101585  21300.048442  13809.900061    -61.091706
PR14  10272.658674   4853.350833  22855.542862     69.127500
PR15  11784.051221 -13686.643082  18041.557640    101.281453
PR16   5292.978875 -24848.875132   1288.103166    -21.940041
PR17  20100.718135  12966.786876  -8923.155186    460.998325
PR18  14221.163216    281.121899 -21150.125984     91.453400
PR19   2064.475543 -11911.637153 -22460.415798   -160.503915
PR20 -13848.292259 -19339.973984  -9248.116290    -56.394726
PR21 -19920.421461 -12209.878434  10190.207523   -241.541407
PR22 -13650.834802    341.673901  21550.513849   -134.928805
PR24  14499.103608  19199.101934   8528.464107     59.854154
EOF
